1 46972U 97051ACE 26101.43150669  .00001303  00000+0  32218-3 0  9999
2 46972  86.3910 347.8745 0011865  68.0639  58.2244 14.51299210633087
